{
	"type": "FeatureCollection",
	"features": [
		{
			"type": "Feature",
			"properties": { "name": "中国轮廓（简化）", "type": "country" },
			"geometry": {
				"type": "Polygon",
				"coordinates": [
					[
						[135, 48.3],
						[134.7, 48.3],
						[134, 48.3],
						[132, 48.2],
						[130, 48],
						[128, 49],
						[126, 49.5],
						[124, 48.5],
						[122, 47.5],
						[120, 46.8],
						[117, 46.5],
						[114, 47],
						[111, 47.5],
						[108, 48],
						[105, 48.5],
						[101, 49],
						[97, 49.5],
						[93, 49.8],
						[90, 49.5],
						[87, 49],
						[85, 48],
						[83, 47],
						[81, 46],
						[79, 45],
						[77.5, 43.5],
						[76, 42],
						[74.5, 40.5],
						[73.5, 39],
						[75, 37],
						[77, 35],
						[78, 32],
						[79, 31],
						[80, 30.5],
						[81, 30],
						[84, 28.5],
						[86, 28],
						[88, 28],
						[90, 28.5],
						[92, 27.5],
						[94, 28],
						[96, 28],
						[98, 27],
						[99, 26],
						[100, 25],
						[101, 24],
						[102, 23],
						[103, 22],
						[104, 22],
						[105, 22.5],
						[106, 21.5],
						[108, 21.5],
						[109, 21.5],
						[110, 20.5],
						[110, 20],
						[109.5, 19],
						[108.5, 18.5],
						[109, 17.5],
						[110, 17],
						[111, 18],
						[112, 19],
						[113, 20],
						[114, 21],
						[114.5, 22.5],
						[115, 23],
						[116, 23.5],
						[117, 24],
						[118, 25],
						[119, 26],
						[120, 27],
						[121, 28],
						[121.5, 29],
						[122, 30],
						[121, 30.5],
						[120, 31],
						[120, 32],
						[119, 33],
						[118, 34],
						[117, 34.5],
						[118, 35.5],
						[119, 36],
						[120, 37],
						[121, 38],
						[122, 39.5],
						[122, 40],
						[121, 40],
						[121, 40.5],
						[120.5, 40.8],
						[119.5, 40.5],
						[118.5, 40.5],
						[118, 39.8],
						[117.5, 39],
						[117, 38.5],
						[116, 37.5],
						[115, 36.5],
						[114, 36],
						[113, 35.5],
						[112, 35],
						[111, 35.5],
						[110, 35],
						[109, 34.5],
						[108, 34],
						[107, 34],
						[106, 34.5],
						[105, 35],
						[104, 35.5],
						[103, 36],
						[102, 36.5],
						[101, 37],
						[100, 37.5],
						[99, 38],
						[98, 38.5],
						[97, 39.5],
						[96, 40],
						[95, 41],
						[94, 42],
						[93, 43],
						[92, 44],
						[91, 44.5],
						[90, 44.5],
						[89, 45],
						[88, 45.5],
						[87, 46],
						[86, 46.5],
						[85, 47],
						[84, 47.5],
						[83, 47.5],
						[82, 47],
						[81, 46.5],
						[80, 46],
						[79, 45],
						[78, 44],
						[77, 43],
						[76, 42],
						[75, 41],
						[74, 40],
						[73.5, 39]
					]
				]
			}
		},
		{
			"type": "Feature",
			"properties": { "name": "青藏铁路（示意）", "type": "railway" },
			"geometry": {
				"type": "LineString",
				"coordinates": [
					[116.4, 39.9],
					[115, 38],
					[112, 36],
					[108, 34],
					[104, 33],
					[100, 34],
					[97, 34],
					[94, 33],
					[91, 30.5],
					[88, 30],
					[84, 29.5],
					[80, 30]
				]
			}
		},
		{
			"type": "Feature",
			"properties": { "name": "北京", "type": "city" },
			"geometry": { "type": "Point", "coordinates": [116.4, 39.9] }
		},
		{
			"type": "Feature",
			"properties": { "name": "上海", "type": "city" },
			"geometry": { "type": "Point", "coordinates": [121.47, 31.23] }
		},
		{
			"type": "Feature",
			"properties": { "name": "广州", "type": "city" },
			"geometry": { "type": "Point", "coordinates": [113.26, 23.13] }
		},
		{
			"type": "Feature",
			"properties": { "name": "拉萨", "type": "city" },
			"geometry": { "type": "Point", "coordinates": [91.11, 29.65] }
		},
		{
			"type": "Feature",
			"properties": { "name": "相机起始点", "type": "marker" },
			"geometry": { "type": "Point", "coordinates": [104, 35] }
		}
	]
}
